{"spkid": "50572250", "covariance": {"labels": ["e", "q", "tp", "node", "peri", "i"], "data": [["5.628264088065487E-15", "-1.537655844172443E-14", "-4.908565511152225E-12", "7.525553204107969E-12", "-8.336600445399098E-12", "-4.721875567633389E-13"], ["-1.537655844172443E-14", "4.621229125991303E-14", "2.107529385022026E-11", "-2.305425527631391E-11", "2.641783805232818E-11", "1.371753483249226E-12"], ["-4.908565511152225E-12", "2.107529385022026E-11", "1.859961823312138E-8", "-1.114502141813911E-8", "1.432941039443516E-8", "5.394612027890527E-10"], ["7.525553204107969E-12", "-2.305425527631391E-11", "-1.114502141813911E-8", "1.272778533493399E-8", "-1.460028155936433E-8", "-4.784477257432303E-10"], ["-8.336600445399098E-12", "2.641783805232818E-11", "1.432941039443516E-8", "-1.460028155936433E-8", "1.735835749462725E-8", "5.550777267924744E-10"], ["-4.721875567633389E-13", "1.371753483249226E-12", "5.394612027890527E-10", "-4.784477257432303E-10", "5.550777267924744E-10", "1.440979384838303E-10"]], "elements": [{"label": "e", "name": "e", "sigma": 7.50217574311978e-08, "title": "eccentricity", "value": ".519918546342403", "units": null}, {"sigma": 2.14970442758797e-07, "name": "q", "value": "1.036408595258965", "title": "perihelion distance", "units": "au", "label": "q"}, {"sigma": 0.000136380417337393, "name": "tp", "title": "time of perihelion passage", "value": "2456929.384023680229", "units": "TDB", "label": "tp"}, {"sigma": 0.000112817486831315, "name": "om", "title": "longitude of the ascending node", "value": "280.9751081989374", "units": "deg", "label": "node"}, {"sigma": 0.000131751119519446, "name": "w", "units": "deg", "value": "28.06716610947927", "title": "argument of perihelion", "label": "peri"}, {"label": "i", "name": "i", "sigma": 1.20040800765336e-05, "title": "inclination", "value": "9.159345478842335", "units": "deg"}], "epoch": "2456362.5"}, "elements": [{"label": "e", "units": null, "title": "eccentricity", "value": ".5211934485322146", "sigma": "7.5798E-8", "name": "e"}, {"label": "a", "units": "au", "value": "2.158425382663788", "title": "semi-major axis", "name": "a", "sigma": "1.6472E-7"}, {"label": "q", "title": "perihelion distance", "value": "1.033468214073783", "units": "au", "sigma": "2.1814E-7", "name": "q"}, {"name": "i", "sigma": "1.1957E-5", "units": "deg", "title": "inclination; angle with respect to x-y ecliptic plane", "value": "9.15075148739165", "label": "i"}, {"name": "om", "sigma": ".00011321", "value": "280.8284967301595", "title": "longitude of the ascending node", "units": "deg", "label": "node"}, {"label": "peri", "units": "deg", "title": "argument of perihelion", "value": "28.26259957263773", "sigma": ".00013218", "name": "w"}, {"label": "M", "units": "deg", "title": "mean anomaly", "value": "246.2626809174879", "name": "ma", "sigma": ".00019209"}, {"label": "tp", "value": "2461566.435440635437", "title": "time of perihelion passage", "units": "TDB", "sigma": ".00065988", "name": "tp"}, {"sigma": ".00013259", "name": "per", "value": "1158.254473478376", "title": "sidereal orbital period", "units": "d", "label": "period"}, {"name": "n", "sigma": "3.5579E-8", "value": ".3108125271632901", "title": "mean motion", "units": "deg/d", "label": "n"}, {"label": "Q", "name": "ad", "sigma": "2.5057E-7", "units": "au", "value": "3.283382551253793", "title": "aphelion distance"}], "epoch": "2461200.5"}